First Name,Last Name,Seniority,City,State,Address,Dining Interests,Email,Phone
Lynette,Carl,Director,Durham,North Carolina,"1 Seaport Lane, Boston, Massachusetts, United States, 02210","Fine Dining, Pubs, Coffee Shops",test@test.com,+1 919-490-0967
Flemming,Jones,Vp,Los Angeles,California,"4480 Highway 22, Mandeville, Louisiana, United States, 70471-3311","Pubs, Fine Dining, Take Out",test@test.com,+1 919-490-0968
Jenifer,Howe,Director,Phoenix,Arizona,"1510 16th St, Sacramento, California, United States, 95814","Fine Dining, Pubs, Take Out",test@test.com,+1 919-490-0969
Margaret,Renzi,Director,New Orleans,Louisiana,"11380 Lindbergh Blvd, Fort Myers, Florida, United States, 33913","Fine Dining, Pubs, Coffee Shops",test@test.com,+1 919-490-0970
Lauri,Biggs,Director,Boston,Massachusetts,"3138 Fillmore St, San Francisco, California, United States, 94123","Pubs, Fine Dining, Take Out",test@test.com,+1 919-490-0971
Nicholas,Brown,Vp,Mandeville,Louisiana,"2190 Pimmit Dr, Falls Church, Virginia, United States, 22043-2805","Fine Dining, Pubs, Take Out",test@test.com,+1 919-490-0972
Sean,Ward,C suite,Sacramento,California,"20 Vail Rd, Vail, Colorado, United States, 81657","Fine Dining, Pubs, Coffee Shops",test@test.com,+1 919-490-0973
Racheal,Miller,Head,Fort Myers,Florida,"111 W Mulberry St, Denton, Texas, United States, 76201","Pubs, Fine Dining, Take Out",test@test.com,+1 919-490-0974
McKenzie,Cofelice,Vp,San Francisco,California,"NE 45th St, Seattle, Washington, United States, 98195","Fine Dining, Pubs, Take Out",test@test.com,+1 919-490-0975
Keith,Shirley,Director,Falls Church,Virginia,"1220 16th St, Miami Beach, Florida, United States, 33139-2309","Fine Dining, Pubs, Coffee Shops",test@test.com,+1 919-490-0976
Chris,Gustafsson,Director,Vail,Colorado,"1877 North Rock Road, Wichita, Kansas, United States, 67206","Pubs, Fine Dining, Take Out",test@test.com,+1 919-490-0977
Phil,Martin,Owner,Denton,Texas,"10 West Hubbard Street, Chicago, Illinois, United States, 60654","Fine Dining, Pubs, Take Out",test@test.com,+1 919-490-0978
Sigurd,Deporter,Director,Seattle,Washington,"463 N University Ave, Provo, Utah, United States, 84601","Fine Dining, Pubs, Coffee Shops",test@test.com,+1 919-490-0979
Amanda,Shah,Director,Miami Beach,Florida,"4000 Mountain Rd, Stowe, Vermont, United States, 05672-4801","Pubs, Fine Dining, Take Out",test@test.com,+1 919-490-0980
Micah,Bailey,C suite,Wichita,Kansas,"33 W Kinzie St, Chicago, Illinois, United States, 60654","Fine Dining, Pubs, Take Out",test@test.com,+1 919-490-0981
Alexios,Chander,Vp,Chicago,Illinois,"59 Morris St, Morristown, New Jersey, United States, 07960-4103","Fine Dining, Pubs, Coffee Shops",test@test.com,+1 919-490-0982
Daniel,Elder,Vp,Provo,Utah,"3300 North Interstate Highway 35, Austin, Texas, United States, 78705","Pubs, Fine Dining, Take Out",test@test.com,+1 919-490-0983
Paul,Carter,Director,Stowe,Vermont,"6603 Theall Rd, Houston, Texas, United States, 77066-1213","Fine Dining, Pubs, Take Out",test@test.com,+1 919-490-0984
Joanna,Gupta,Vp,Chicago,Illinois,"130 2nd Ave N, Franklin, Tennessee, United States, 37064","Fine Dining, Pubs, Coffee Shops",test@test.com,+1 919-490-0985
Syed,Cooke,Vp,Morristown,New Jersey,"5965 Renaissance Pl, Toledo, Ohio, United States, 43623-4709","Pubs, Fine Dining, Take Out",test@test.com,+1 919-490-0986
Mark,Howard,Director,Austin,Texas,"Fort Collins, Colorado, United States","Fine Dining, Pubs, Take Out",test@test.com,+1 919-490-0987
Suneel,Maready,C suite,Houston,Texas,"3365 S Morgans Point Rd, Mount Pleasant, South Carolina, United States, 29466-8329","Fine Dining, Pubs, Coffee Shops",test@test.com,+1 919-490-0988
Kimberly,Frame,Director,Franklin,Tennessee,"4034 Tchoupitoulas St, New Orleans, Louisiana, United States, 70115","Pubs, Fine Dining, Take Out",test@test.com,+1 919-490-0989
Jenny,Fleishman,Founder,Toledo,Ohio,"56-565 Kamehameha Hwy, Kahuku, Hawaii, United States, 96731","Fine Dining, Pubs, Take Out",test@test.com,+1 919-490-0990
Rocky,Rasmus,Director,Fort Collins,Colorado,"700 Trapp Hill Rd, Stowe, Vermont, United States, 05672","Fine Dining, Pubs, Coffee Shops",test@test.com,+1 919-490-0991
Anna,Oleary,Director,Mount Pleasant,South Carolina,"4819 Bethesda Ave, Bethesda, Maryland, United States, 20814-5201","Pubs, Fine Dining, Take Out",test@test.com,+1 919-490-0992
Pike,Cuthbert,Owner,New Orleans,Louisiana,"201 Yoakum Parkway, Alexandria, Virginia, United States, 22304","Fine Dining, Pubs, Take Out",test@test.com,+1 919-490-0993
Brigham,Fox,Owner,Kahuku,Hawaii,"12503 E Euclid Dr, Centennial, Colorado, United States, 80111-6400","Fine Dining, Pubs, Coffee Shops",test@test.com,+1 919-490-0994
Walter,Cooper,C suite,Stowe,Vermont,"474 Peterboro St, Detroit, Michigan, United States, 48201","Pubs, Fine Dining, Take Out",test@test.com,+1 919-490-0995
Stephen,Bruna,Vp,Bethesda,Maryland,"5169 Farmville Rd, Farmville, Virginia, United States, 23901-5921","Fine Dining, Pubs, Take Out",test@test.com,+1 919-490-0996
Christopher,Colon,C suite,Alexandria,Virginia,"614 Fifth Avenue, San Diego, California, United States, 92101","Fine Dining, Pubs, Coffee Shops",test@test.com,+1 919-490-0997
Bryan,Weisgerber,Owner,Centennial,Colorado,"8905 Lake Ave, Cleveland, Ohio, United States, 44102","Pubs, Fine Dining, Take Out",test@test.com,+1 919-490-0998
Rebecca,Moncayo,Director,Detroit,Michigan,"520 12th St S, Arlington, Virginia, United States, 22202-4210","Fine Dining, Pubs, Take Out",test@test.com,+1 919-490-0999
Tom,Avella,Owner,Farmville,Virginia,"Lewes, Delaware, United States","Fine Dining, Pubs, Coffee Shops",test@test.com,+1 919-490-1000
Paul,Sanchez,Vp,San Diego,California,"2823 Selwyn Ave, Charlotte, North Carolina, United States, 28209-1705","Pubs, Fine Dining, Take Out",test@test.com,+1 919-490-1001
Kristen,Pappe,Director,Cleveland,Ohio,"5655 College Avenue, Oakland, California, United States, 94618","Fine Dining, Pubs, Take Out",test@test.com,+1 919-490-1002
Natasha,Pancoast,Director,Arlington,Virginia,"41000 Bob Hope Dr, Rancho Mirage, California, United States, 92270","Fine Dining, Pubs, Coffee Shops",test@test.com,+1 919-490-1003
Jim,Burri,Owner,Lewes,Delaware,"2944 SE Powell Blvd, Portland, Oregon, United States, 97202","Pubs, Fine Dining, Take Out",test@test.com,+1 919-490-1004
Andres,Johnson,Vp,Charlotte,North Carolina,"225 Water St, Plymouth, Massachusetts, United States, 02360-4026","Fine Dining, Pubs, Take Out",test@test.com,+1 919-490-1005
Rich,Ballerini,Vp,Oakland,California,"6040 Dutchmans Ln, Louisville, Kentucky, United States, 40205","Fine Dining, Pubs, Coffee Shops",test@test.com,+1 919-490-1006
Blanca,Saxton,Director,Rancho Mirage,California,"2576 Aurora Avenue North, Seattle, Washington, United States, 98109","Pubs, Fine Dining, Take Out",test@test.com,+1 919-490-1007
Ryan,Thering,Director,Portland,Oregon,"Albany, New York, United States, 12222","Fine Dining, Pubs, Take Out",test@test.com,+1 919-490-1008
Nicholas,Johnson,Vp,Plymouth,Massachusetts,"2288 Monitor St, Dallas, Texas, United States, 75207-6204","Fine Dining, Pubs, Coffee Shops",test@test.com,+1 919-490-1009
Clayton,Ketry,Partner,Louisville,Kentucky,"2640 South Bayshore Drive, Miami, Florida, United States, 33133","Pubs, Fine Dining, Take Out",test@test.com,+1 919-490-1010
Kyle,Andriola,Director,Seattle,Washington,"Irving, Texas, United States, 75038","Fine Dining, Pubs, Take Out",test@test.com,+1 919-490-1011
Tommy,Bradley,Director,Albany,New York,"76 Pearl Street, Buffalo, New York, United States, 14202","Fine Dining, Pubs, Coffee Shops",test@test.com,+1 919-490-1012
Adam,McCarthy,Owner,Dallas,Texas,"700 S Grand Ave, Los Angeles, California, United States, 90017","Pubs, Fine Dining, Take Out",test@test.com,+1 919-490-1013
Rachel,Cairo,Director,Miami,Florida,"1825 Delaware Ave, Wilmington, Delaware, United States, 19806-2331","Fine Dining, Pubs, Take Out",test@test.com,+1 919-490-1014
Caitlin,Rosenwald,Director,Irving,Texas,"84 Industrial Park Rd, Saco, Maine, United States, 04072-1840","Fine Dining, Pubs, Coffee Shops",test@test.com,+1 919-490-1015
Josh,Farnworth,Director,Buffalo,New York,"123 Southeast 2nd Avenue, Portland, Oregon, United States, 97214","Pubs, Fine Dining, Take Out",test@test.com,+1 919-490-1016
Scott,Shaw,Vp,Los Angeles,California,"New York, New York, United States, 10001","Fine Dining, Pubs, Take Out",test@test.com,+1 919-490-1017
Maryann,Panarello,Director,Wilmington,Delaware,"510 SW 3rd Ave, Portland, Oregon, United States, 97204","Fine Dining, Pubs, Coffee Shops",test@test.com,+1 919-490-1018
Shelbi,Schult,Director,Saco,Maine,"6627 Hollywood Blvd, Los Angeles, California, United States, 90028","Pubs, Fine Dining, Take Out",test@test.com,+1 919-490-1019
Michelle,Crum,C suite,Portland,Oregon,"220 Rehoboth Ave, Rehoboth Beach, Delaware, United States, 19971","Fine Dining, Pubs, Take Out",test@test.com,+1 919-490-1020
Marylee,Green,C suite,New York,New York,"2457 Russell St, Detroit, Michigan, United States, 48207-2631","Fine Dining, Pubs, Coffee Shops",test@test.com,+1 919-490-1021
Lani,Hughes,Director,Portland,Oregon,"6112 Roswell Rd, Atlanta, Georgia, United States, 30328","Pubs, Fine Dining, Take Out",test@test.com,+1 919-490-1022
Jimmy,Stowe,Founder,Los Angeles,California,"718 St Peter St, New Orleans, Louisiana, United States, 70116","Fine Dining, Pubs, Take Out",test@test.com,+1 919-490-1023
Danielle,Griffiths,Vp,Rehoboth Beach,Delaware,"12121 Harbour Reach Dr, Mukilteo, Washington, United States, 98275-5314","Fine Dining, Pubs, Coffee Shops",test@test.com,+1 919-490-1024
Stephanie,Scarnato,Director,Detroit,Michigan,"4612 Excelsior Blvd, Minneapolis, Minnesota, United States, 55416-4938","Pubs, Fine Dining, Take Out",test@test.com,+1 919-490-1025
Sean,Lang,Vp,Atlanta,Georgia,"100 South Saunders Road, Lake Forest, Illinois, United States, 60045","Fine Dining, Pubs, Take Out",test@test.com,+1 919-490-1026
Jennifer,Ford,Director,New Orleans,Louisiana,"207 N Gilbert Rd, Gilbert, Arizona, United States, 85234-5801","Fine Dining, Pubs, Coffee Shops",test@test.com,+1 919-490-1027
Eric,Dimitrijevic,C suite,Mukilteo,Washington,"33840 US Highway 19 N, Palm Harbor, Florida, United States, 34684-2642","Pubs, Fine Dining, Take Out",test@test.com,+1 919-490-1028
Katie,Losey,Vp,Minneapolis,Minnesota,"901 17th St NW, Washington, District of Columbia, United States, 20006","Fine Dining, Pubs, Take Out",test@test.com,+1 919-490-1029
Meghan,Hymas,C suite,Lake Forest,Illinois,"335 Bowery, New York, New York, United States, 10003","Fine Dining, Pubs, Coffee Shops",test@test.com,+1 919-490-1030
Tarin,Carter,Vp,Gilbert,Arizona,"353 Fifth Avenue, San Diego, California, United States, 92101","Pubs, Fine Dining, Take Out",test@test.com,+1 919-490-1031
Kirsten,Fuentes,Owner,Palm Harbor,Florida,"117 North 4th Street, Las Vegas, Nevada, United States, 89101","Fine Dining, Pubs, Take Out",test@test.com,+1 919-490-1032
Sarah,Turner,C suite,Washington,District of Columbia,"1300 Pennsylvania Ave NW, Washington, District of Columbia, United States, 20004","Fine Dining, Pubs, Coffee Shops",test@test.com,+1 919-490-1033
Alexandra,Beasley,Director,New York,New York,"16816 Dallas Pkwy, Dallas, Texas, United States, 75248-1919","Pubs, Fine Dining, Take Out",test@test.com,+1 919-490-1034
Holly,Villemin,Director,San Diego,California,"Sevierville, Tennessee, United States, 37868","Fine Dining, Pubs, Take Out",test@test.com,+1 919-490-1035
Paul,Mitchell,Founder,Las Vegas,Nevada,"300 W Pratt St, Baltimore, Maryland, United States, 21201-2462","Fine Dining, Pubs, Coffee Shops",test@test.com,+1 919-490-1036
Kevin,Mitchell,Vp,Washington,District of Columbia,"441 Round Hill Rd, Greenwich, Connecticut, United States, 06831-2618","Pubs, Fine Dining, Take Out",test@test.com,+1 919-490-1037
Nancy,Velasco,Owner,Dallas,Texas,"4834 Whirlwind Dr, San Antonio, Texas, United States, 78217","Fine Dining, Pubs, Take Out",test@test.com,+1 919-490-1038
Kathy,Mar,Director,Sevierville,Tennessee,"1702 Frederick Rd, Opelika, Alabama, United States, 36801-7208","Fine Dining, Pubs, Coffee Shops",test@test.com,+1 919-490-1039
Kari,Radomski,C suite,Baltimore,Maryland,"236 Albemarle Rd, Charleston, South Carolina, United States, 29407","Pubs, Fine Dining, Take Out",test@test.com,+1 919-490-1040
Jennifer,Denton,Partner,Greenwich,Connecticut,"131 North St, Healdsburg, California, United States, 95448-3821","Fine Dining, Pubs, Take Out",test@test.com,+1 919-490-1041
Jennifer,Adams,C suite,San Antonio,Texas,"10000 Boat Club Rd, Fort Worth, Texas, United States, 76179","Fine Dining, Pubs, Coffee Shops",test@test.com,+1 919-490-1042
Grace,Vouga,Director,Opelika,Alabama,"1355 Market Street, San Francisco, California, United States, 94103","Pubs, Fine Dining, Take Out",test@test.com,+1 919-490-1043
Lee,Hijlkema,Director,Charleston,South Carolina,"Nashville, Tennessee, United States","Fine Dining, Pubs, Take Out",test@test.com,+1 919-490-1044
Lisa,Shipley,Director,Healdsburg,California,"2204 Sunset Cliffs Blvd, San Diego, California, United States, 92107-1321","Fine Dining, Pubs, Coffee Shops",test@test.com,+1 919-490-1045
Greg,Gistis,C suite,Fort Worth,Texas,"45 Gran Via Marques del Turia, Valencia, Valencian Community, Spain, 46004","Pubs, Fine Dining, Take Out",test@test.com,+1 919-490-1046
David,Engelhart,C suite,San Francisco,California,"1021 NE Grand Ave, Portland, Oregon, United States, 97232","Fine Dining, Pubs, Take Out",test@test.com,+1 919-490-1047
Amanda,Bosley,Director,Nashville,Tennessee,"225 Water St, Plymouth, Massachusetts, United States, 02360-4026","Fine Dining, Pubs, Coffee Shops",test@test.com,+1 919-490-1048
Zach,Maemone,Founder,San Diego,California,"San Francisco, California, United States, 94102","Pubs, Fine Dining, Take Out",test@test.com,+1 919-490-1049
Eduardo,Thompson,C suite,Valencia,Valencian Community,"2840 W Parrish Ave, Owensboro, Kentucky, United States, 42301","Fine Dining, Pubs, Take Out",test@test.com,+1 919-490-1050
Kristina,Lytle,Director,Portland,Oregon,"206 N Santa Cruz Ave, Los Gatos, California, United States, 95030","Fine Dining, Pubs, Coffee Shops",test@test.com,+1 919-490-1051
Glen,Biedritzky,C suite,Plymouth,Massachusetts,"315 S Broad St, New Orleans, Louisiana, United States, 70119","Pubs, Fine Dining, Take Out",test@test.com,+1 919-490-1052
Terces,Watts,Founder,San Francisco,California,"2060 Highway A1a, Indian Harbour Beach, Florida, United States, 32937-3525","Fine Dining, Pubs, Take Out",test@test.com,+1 919-490-1053
Patrick,Sahragard,Vp,Owensboro,Kentucky,"2141 SW 1st St, Redmond, Oregon, United States, 97756","Fine Dining, Pubs, Coffee Shops",test@test.com,+1 919-490-1054
Laura,Quinn,Director,Los Gatos,California,"270 Golf Dr, Cresco, Pennsylvania, United States, 18326","Pubs, Fine Dining, Take Out",test@test.com,+1 919-490-1055
Erich,Johnstone,Owner,New Orleans,Louisiana,"6166 Highway 6 N, Houston, Texas, United States, 77084","Fine Dining, Pubs, Take Out",test@test.com,+1 919-490-1056
Jack,Barreira,Director,Indian Harbour Beach,Florida,"2 Olde Bedford Way, Bedford, New Hampshire, United States, 03110","Fine Dining, Pubs, Coffee Shops",test@test.com,+1 919-490-1057
Karl,Thompson,Director,Redmond,Oregon,"135 S Garber Dr, Tipp City, Ohio, United States, 45371","Pubs, Fine Dining, Take Out",test@test.com,+1 919-490-1058
Alysse,Lytle,Director,Cresco,Pennsylvania,"124 Bedford Center Rd, Bedford, New Hampshire, United States, 03110","Fine Dining, Pubs, Take Out",test@test.com,+1 919-490-1059
Masood,Johnstone,Partner,Houston,Texas,"4435 Macomb St NW, Washington, District of Columbia, United States, 20016","Fine Dining, Pubs, Coffee Shops",test@test.com,+1 919-490-1060
Melissa,Barreira,Director,Bedford,New Hampshire,"8045 Stonewall Shops Sq, Gainesville, Virginia, United States, 20155","Pubs, Fine Dining, Take Out",test@test.com,+1 919-490-1061
Michael,Thompson,Partner,Tipp City,Ohio,"135 S Garber Dr, Tipp City, Ohio, United States, 45371","Fine Dining, Pubs, Take Out",test@test.com,+1 919-490-1062
Nicole,Lytle,Director,Bedford,New Hampshire,"124 Bedford Center Rd, Bedford, New Hampshire, United States, 03110","Fine Dining, Pubs, Coffee Shops",test@test.com,+1 919-490-1063
Kevin,Weishaupt,C suite,Washington,District of Columbia,"4435 Macomb St NW, Washington, District of Columbia, United States, 20016","Pubs, Fine Dining, Take Out",test@test.com,+1 919-490-1064
Bobby,Adams,Partner,Gainesville,Virginia,"8045 Stonewall Shops Sq, Gainesville, Virginia, United States, 20155","Fine Dining, Pubs, Take Out",test@test.com,+1 919-490-1065